STARLINK-31574          
1 59543U 24074K   26068.17193650 -.00002487  00000+0 -80926-4 0  9998
2 59543  43.0004 346.5792 0000980 281.8473  78.2269 15.27571080105933
FLOCK 4G-8              
1 62613U 25009E   26068.72381419  .00013559  00000+0  50438-3 0  9996
2 62613  97.4045 151.2834 0003050 315.2538  44.8455 15.27623414 63721
